*******************************************************************************
 Revised: Dec 14, 2021            STEREO-A Spacecraft                      -234
                              http://stereo.gsfc.nasa.gov/

 BACKGROUND:
  STEREO (Solar TErrestrial RElations Observatory) is the third mission in 
  NASA's Solar Terrestrial Probes program (STP). This two-year mission will use
  two nearly identical space-based observatories - one ahead of Earth in its 
  orbit, the other trailing behind - to provide stereoscopic measurements to 
  study the Sun and the nature of coronal mass ejections (CMEs).

 OBJECTIVES:
  * Understand the causes and mechanisms of coronal mass ejection (CME) 
     initiation.
  * Characterize the propagation of CMEs through the heliosphere.
  * Discover the mechanisms and sites of energetic particle acceleration in 
     the low corona and the interplanetary medium.
  * Improve the determination of the structure of the ambient solar wind. 

 SPACECRAFT:
  Launch (Delta II 7925-10L) = October 26, 2006 @ 1:53 UTC
  Mission end                = 2 year nominal mission after launch
  Dimensions                 = 1.14m x 1.22m (launch), 6.47m x 2.03m (deployed)
  Launch Mass                = 620 kg  (includes propellant)
  Power consumption          = 475 watts
  Data downlink              = 720 kilobits/sec
  Memory                     = 1 GB
  Attitude                   = control within 7", knowledge within 0.1"

 INSTRUMENTS (4 packages on each spacecraft):
  * Sun Earth Connection Coronal and Heliospheric Investigation (SECCHI)
  * STEREO/WAVES (SWAVES) radio burst tracker
  * In-situ Measurements of Particles and CME Transients (IMPACT)
  * PLAsma and SupraThermal Ion Composition (PLASTIC) 

 ORBIT:
  STEREO-A and STEREO-B will be launched together, then separate. The Moon's 
  gravity will be used to redirect the observatories to their appropriate 
  orbits, something the launch vehicle alone is not able to do.

  For the first three months after launch, the two observatories will fly in 
  highly elliptical orbits extending from very close to Earth to just beyond 
  the Moon's orbit. STEREO Mission Operations personnel at APL will 
  synchronize spacecraft orbits so that about two months after launch they 
  encounter the Moon, at which time one of them is close enough to use the 
  Moon's gravity to redirect it to a position "ahead"/leading the Earth. 
  Approximately one month later, the second observatory will encounter the 
  Moon again and be redirected to its orbit "behind"/trailing the Earth. 

 POST-LAUNCH SPACECRAFT TRAJECTORY: 
  Fit to tracking data until 2021-Nov-26, planning prediction thereafter.

  Trajectory name                    Start        Stop
  ---------------------------------  -----------  -----------
  ahead_2006_350_01.depm             2006-Oct-26  2006-Dec-15
  ahead_2008_037_01.depm             2006-Dec-15  2008-Jan-21
  ahead_2010_208_01.depm             2008-Jan-21  2010-Jul-16
  ahead_2012_138_01.depm             2010-Jul-16  2012-Apr-18
  ahead_2013_130_01.depm             2012-Apr-18  2013-Apr-25
  ahead_2015_219_01.depm             2013-Apr-25  2015-Jul-23
  ahead_2018_019_01.depm             2015-Jul-23  2017-Dec-21
  ahead_2020_224_01.depm             2017-Dec-21  2020-Aug-11
  ahead_2021_327_07.depm             2020-Aug-11  2021-Nov-23
  ahead_2021_327_07.epm              2021-Nov-23  2022-Mar-17
*******************************************************************************


*******************************************************************************
Ephemeris / WWW_USER Wed Feb  2 11:15:59 2022 Pasadena, USA      / Horizons    
*******************************************************************************
Target body name: STEREO-A (spacecraft) (-234)    {source: STEREO-A_merged}
Center body name: Sun (10)                        {source: DE441}
Center-site name: BODYCENTRIC
*******************************************************************************
Start time      : A.D. 2006-Oct-26 00:09:00.0000 UT      
Stop  time      : A.D. 2006-Dec-31 23:59:00.0000 UT      
Step-size       : 40 minutes
*******************************************************************************
Target pole/equ : No model available
Target radii    : (unavailable)                                                
Center geodetic : 0.00000000,0.00000000,0.0000000 {E-lon(deg),Lat(deg),Alt(km)}
Center cylindric: 0.00000000,0.00000000,0.0000000 {E-lon(deg),Dxy(km),Dz(km)}
Center pole/equ : IAU_SUN                         {East-longitude positive}
Center radii    : 696000.0 x 696000.0 x 696000.0 k{Equator, meridian, pole}    
Target primary  : Earth
Vis. interferer : None
Rel. light bend : Sun                             {source: DE441}
Rel. lght bnd GM: 1.3271E+11 km^3/s^2                                          
Atmos refraction: NO (AIRLESS)
RA format       : HMS
Time format     : CAL 
EOP file        : eop.220131.p220426                                           
EOP coverage    : DATA-BASED 1962-JAN-20 TO 2022-JAN-31. PREDICTS-> 2022-APR-25
Units conversion: 1 au= 149597870.700 km, c= 299792.458 km/s, 1 day= 86400.0 s 
Table cut-offs 1: Elevation (-90.0deg=NO ),Airmass     n.a.    , Daylight (NO )
Table cut-offs 2: Solar elongation (  0.0,180.0=NO ),Local Hour Angle( 0.0=NO )
Table cut-offs 3: RA/DEC angular rate (     0.0=NO )                           
*******************************************************************************
 Date__(UT)__HR:MN     R.A._____(ICRF)_____DEC             delta      deldot
****************************************************************************
$$SOE
 2006-Dec-13 00:09     05 19 53.22 +23 06 05.9  0.98411893953551  -1.3295441
 2006-Dec-13 00:49     05 20 00.93 +23 06 13.0  0.98409774766416  -1.3124212
 2006-Dec-13 01:29     05 20 08.63 +23 06 20.0  0.98407682603438  -1.2958493
 2006-Dec-13 02:09     05 20 16.32 +23 06 27.1  0.98405616606655  -1.2797963
 2006-Dec-13 02:49     05 20 24.00 +23 06 34.2  0.98403575967624  -1.2642325
 2006-Dec-13 03:29     05 20 31.68 +23 06 41.3  0.98401559924049  -1.2491302
 2006-Dec-13 04:09     05 20 39.35 +23 06 48.4  0.98399567756558  -1.2344636
 2006-Dec-13 04:49     05 20 47.02 +23 06 55.5  0.98397598785674  -1.2202086
 2006-Dec-13 05:29     05 20 54.67 +23 07 02.6  0.98395652368989  -1.2063430
 2006-Dec-13 06:09     05 21 02.33 +23 07 09.7  0.98393727898531  -1.1928462
 2006-Dec-13 06:49     05 21 09.98 +23 07 16.8  0.98391824798344  -1.1796989
 2006-Dec-13 07:29     05 21 17.62 +23 07 23.8  0.98389942522243  -1.1668832
 2006-Dec-13 08:09     05 21 25.26 +23 07 30.9  0.98388080551759  -1.1543825
 2006-Dec-13 08:49     05 21 32.89 +23 07 37.9  0.98386238394240  -1.1421811
 2006-Dec-13 09:29     05 21 40.52 +23 07 45.0  0.98384415581106  -1.1302647
 2006-Dec-13 10:09     05 21 48.14 +23 07 52.0  0.98382611666256  -1.1186196
 2006-Dec-13 10:49     05 21 55.76 +23 07 59.0  0.98380826224583  -1.1072332
 2006-Dec-13 11:29     05 22 03.38 +23 08 06.1  0.98379058850627  -1.0960937
 2006-Dec-13 12:09     05 22 10.99 +23 08 13.0  0.98377309157325  -1.0851900
 2006-Dec-13 12:49     05 22 18.59 +23 08 20.0  0.98375577115307  -1.0745737
 2006-Dec-13 13:29     05 22 26.20 +23 08 27.0  0.98373861731192  -1.0640243
 2006-Dec-13 14:09     05 22 33.80 +23 08 34.0  0.98372162964073  -1.0537681
 2006-Dec-13 14:49     05 22 41.40 +23 08 40.9  0.98370480491453  -1.0437096
 2006-Dec-13 15:29     05 22 48.99 +23 08 47.8  0.98368814002733  -1.0338406
 2006-Dec-13 16:09     05 22 56.58 +23 08 54.8  0.98367163200010  -1.0241535
 2006-Dec-13 16:49     05 23 04.17 +23 09 01.7  0.98365527797357  -1.0146411
 2006-Dec-13 17:29     05 23 11.75 +23 09 08.5  0.98363907520166  -1.0052964
 2006-Dec-13 18:09     05 23 19.33 +23 09 15.4  0.98362302104524  -0.9961130
 2006-Dec-13 18:49     05 23 26.91 +23 09 22.3  0.98360711296648  -0.9870848
 2006-Dec-13 19:29     05 23 34.49 +23 09 29.1  0.98359134852346  -0.9782058
 2006-Dec-13 20:09     05 23 42.06 +23 09 35.9  0.98357572536530  -0.9694707
 2006-Dec-13 20:49     05 23 49.63 +23 09 42.7  0.98356024122746  -0.9608741
 2006-Dec-13 21:29     05 23 57.20 +23 09 49.5  0.98354489392751  -0.9524111
 2006-Dec-13 22:09     05 24 04.76 +23 09 56.3  0.98352968136106  -0.9440769
 2006-Dec-13 22:49     05 24 12.33 +23 10 03.0  0.98351460149808  -0.9358670
 2006-Dec-13 23:29     05 24 19.89 +23 10 09.8  0.98349965237934  -0.9277771
 2006-Dec-14 00:09     05 24 27.44 +23 10 16.5  0.98348483211318  -0.9198031
 2006-Dec-14 00:49     05 24 35.00 +23 10 23.2  0.98347013887241  -0.9119410
 2006-Dec-14 01:29     05 24 42.55 +23 10 29.9  0.98345557089150  -0.9041871
 2006-Dec-14 02:09     05 24 50.10 +23 10 36.6  0.98344112646384  -0.8965377
 2006-Dec-14 02:49     05 24 57.65 +23 10 43.2  0.98342680393929  -0.8889895
 2006-Dec-14 03:29     05 25 05.20 +23 10 49.8  0.98341260172176  -0.8815392
 2006-Dec-14 04:09     05 25 12.75 +23 10 56.5  0.98339851826705  -0.8741836
 2006-Dec-14 04:49     05 25 20.29 +23 11 03.1  0.98338455208080  -0.8669195
 2006-Dec-14 05:29     05 25 27.83 +23 11 09.6  0.98337070171648  -0.8597442
 2006-Dec-14 06:09     05 25 35.37 +23 11 16.2  0.98335696577367  -0.8526548
 2006-Dec-14 06:49     05 25 42.91 +23 11 22.7  0.98334334289626  -0.8456486
 2006-Dec-14 07:29     05 25 50.44 +23 11 29.2  0.98332983177095  -0.8387229
 2006-Dec-14 08:09     05 25 57.98 +23 11 35.8  0.98331643112572  -0.8318753
 2006-Dec-14 08:49     05 26 05.51 +23 11 42.2  0.98330313972842  -0.8251032
 2006-Dec-14 09:29     05 26 13.04 +23 11 48.7  0.98328995638550  -0.8184044
 2006-Dec-14 10:09     05 26 20.57 +23 11 55.1  0.98327687994080  -0.8117764
 2006-Dec-14 10:49     05 26 28.10 +23 12 01.6  0.98326390927440  -0.8052172
 2006-Dec-14 11:29     05 26 35.62 +23 12 08.0  0.98325104330161  -0.7987245
 2006-Dec-14 12:09     05 26 43.15 +23 12 14.4  0.98323828097194  -0.7922963
 2006-Dec-14 12:49     05 26 50.67 +23 12 20.7  0.98322562126830  -0.7859304
 2006-Dec-14 13:29     05 26 58.19 +23 12 27.1  0.98321306320608  -0.7796249
 2006-Dec-14 14:09     05 27 05.71 +23 12 33.4  0.98320060583248  -0.7733778
 2006-Dec-14 14:49     05 27 13.23 +23 12 39.7  0.98318824822578  -0.7671872
 2006-Dec-14 15:29     05 27 20.74 +23 12 46.0  0.98317598949475  -0.7610512
 2006-Dec-14 16:09     05 27 28.26 +23 12 52.3  0.98316382877809  -0.7549680
 2006-Dec-14 16:49     05 27 35.77 +23 12 58.5  0.98315176524399  -0.7489357
 2006-Dec-14 17:29     05 27 43.29 +23 13 04.8  0.98313979808965  -0.7429526
 2006-Dec-14 18:09     05 27 50.80 +23 13 11.0  0.98312792654099  -0.7370168
